STARLETTE               
1 07646U 75010A   22263.46546089 -.00000140  00000+0  23413-6 0  9997
2 07646  49.8238  95.1958 0205760 231.4603 126.7689 13.82313503405608
LAGEOS 1                
1 08820U 76039A   22263.30844373  .00000034  00000+0  00000+0 0  9995
2 08820 109.8518  71.4820 0045140 234.5903 175.9573  6.38664878826328
AJISAI (EGS)            
1 16908U 86061A   22262.87906531 -.00000102  00000+0 -35519-4 0  9999
2 16908  50.0116  28.6908 0011163 302.8449 193.7779 12.44497090310258
COSMOS 1989 (ETALON 1)  
1 19751U 89001C   22262.63174074  .00000024  00000+0  00000+0 0  9991
2 19751  64.3248 119.1462 0023809 213.3910 150.7323  2.13156417262244
COSMOS 2024 (ETALON 2)  
1 20026U 89039C   22262.88760781 -.00000090  00000+0  00000+0 0  9996
2 20026  65.5282 357.1861 0018607 218.5881 267.4456  2.13204421259375
LAGEOS 2                
1 22195U 92070B   22262.48805118 -.00000009  00000+0  00000+0 0  9994
2 22195  52.6691  50.3590 0138386 309.9340  61.3272  6.47293663706942
STELLA                  
1 22824U 93061B   22263.17865424 -.00000028  00000+0  74552-5 0  9997
2 22824  98.9612 286.4760 0005503 236.2302 219.9748 14.27393052510056
LARES                   
1 38077U 12006A   22262.87572164 -.00000025  00000+0  84768-4 0  9992
2 38077  69.4905 106.0252 0011394 253.1016 106.8759 12.54931543485754
